     2.11           G: GLONASS NAV DATA                     RINEX VERSION / TYPE
teqc  2016Apr1      IGN                 20230705 11:30:03UTCPGM / RUN BY / DATE
    18                                                      LEAP SECONDS
Linux 2.4.21-27.ELsmp|Opteron|gcc|Linux x86_64|=+           COMMENT
teqc  2016Apr1      IGN                 20230705 11:30:03UTCCOMMENT
  2023     7     5    1.862645149231D-09                    CORR TO SYSTEM TIME
                                                            END OF HEADER
12 23  7  5  9 45  0.0 2.877134829760D-05 0.000000000000D+00 3.420000000000D+04
    2.060030712891D+04-1.972652435303D+00-9.313225746155D-10 0.000000000000D+00
    4.037500000000D+01 6.107368469238D-01 9.313225746155D-10-1.000000000000D+00
   -1.502072509766D+04-2.697203636169D+00 2.793967723846D-09 0.000000000000D+00
 1 23  7  5  9 45  0.0 6.077159196138D-05 0.000000000000D+00 3.420000000000D+04
    2.108986962891D+04 9.122209548950D-01 9.313225746155D-10 0.000000000000D+00
    1.212327636719D+04 5.370063781738D-01 2.793967723846D-09 1.000000000000D+00
   -7.651003417969D+03 3.366018295288D+00 2.793967723846D-09 0.000000000000D+00
23 23  7  5  9 45  0.0-8.833687752485D-05-9.094947017729D-13 3.420000000000D+04
    9.351143066406D+03-5.823068618774D-01 1.862645149231D-09 0.000000000000D+00
    5.761703613281D+03 3.105418205261D+00 4.656612873077D-09 3.000000000000D+00
    2.300739843750D+04-5.407314300537D-01-0.000000000000D+00 0.000000000000D+00
 7 23  7  5  9 45  0.0 5.949288606644D-05 9.094947017729D-13 3.420000000000D+04
    1.089236328125D+03-2.178740501404D+00 2.793967723846D-09 0.000000000000D+00
    1.404182666016D+04-1.927110671997D+00 3.725290298462D-09 5.000000000000D+00
    2.131947070312D+04 1.378775596619D+00 0.000000000000D+00 0.000000000000D+00
14 23  7  5  9 45  0.0 2.488214522600D-05 0.000000000000D+00 3.420000000000D+04
    1.268938085938D+04 2.183468818665D+00-9.313225746155D-10 0.000000000000D+00
   -1.378689355469D+04-9.174947738647D-01 2.793967723846D-09-7.000000000000D+00
    1.731307421875D+04-2.335177421570D+00-1.862645149231D-09 0.000000000000D+00
17 23  7  5  9 45  0.0-2.922490239143D-06 3.637978807092D-12 3.567000000000D+04
    6.340771484375D+03-3.178586959839D-01-2.793967723846D-09 0.000000000000D+00
   -2.439232226562D+04 5.100431442261D-01-9.313225746155D-10 4.000000000000D+00
    4.082497558594D+03 3.538211822510D+00-2.793967723846D-09 0.000000000000D+00
 5 23  7  5  9 45  0.0 1.152735203505D-04 0.000000000000D+00 3.420000000000D+04
   -2.055531787109D+04-8.239030838013D-01-0.000000000000D+00 0.000000000000D+00
   -1.348845556641D+04-4.617795944214D-01-3.725290298462D-09 1.000000000000D+00
    6.768804687500D+03-3.430252075195D+00-3.725290298462D-09 0.000000000000D+00
11 23  7  5  9 45  0.0-9.652692824602D-05-1.000444171950D-11 3.420000000000D+04
    3.925403320312D+03-2.951092720032D+00-0.000000000000D+00 0.000000000000D+00
    1.020635400391D+04 1.122721672058D+00-9.313225746155D-10 0.000000000000D+00
   -2.303076953125D+04-7.148742675781D-03 2.793967723846D-09 0.000000000000D+00
21 23  7  5  9 45  0.0-2.036616206169D-05-2.728484105319D-12 3.420000000000D+04
   -5.954325195312D+03 2.974567413330D-01 2.793967723846D-09 0.000000000000D+00
    2.463086962891D+04-3.320350646973D-01 9.313225746155D-10 4.000000000000D+00
   -2.788722656250D+03-3.579413414001D+00 1.862645149231D-09 0.000000000000D+00
 2 23  7  5  9 45  0.0-2.263579517603D-05-0.000000000000D+00 3.420000000000D+04
    1.428252148438D+04 2.253022193909D+00-1.862645149231D-09 0.000000000000D+00
   -7.657783203125D+02 1.825386047363D+00-0.000000000000D+00-4.000000000000D+00
   -2.109289697266D+04 1.450348854065D+00 2.793967723846D-09 0.000000000000D+00
18 23  7  5  9 45  0.0 9.001139551401D-05 9.094947017729D-13 3.420000000000D+04
   -1.350015136719D+03 1.250152587891D-01-4.656612873077D-09 0.000000000000D+00
   -2.227048828125D+04-1.698751449585D+00-3.725290298462D-09-3.000000000000D+00
   -1.231327880859D+04 3.060695648193D+00-1.862645149231D-09 0.000000000000D+00
 4 23  7  5  9 45  0.0 1.938436180353D-04 9.094947017729D-13 3.420000000000D+04
   -1.435215185547D+04 9.515981674194D-01-2.793967723846D-09 0.000000000000D+00
   -1.844998583984D+04 1.039616584778D+00-5.587935447693D-09 6.000000000000D+00
   -1.017000585938D+04-3.220433235168D+00-2.793967723846D-09 0.000000000000D+00
 3 23  7  5  9 45  0.0 8.096545934677D-05-0.000000000000D+00 3.420000000000D+04
   -3.070253906250D+02 2.234556198120D+00-3.725290298462D-09 0.000000000000D+00
   -1.352545654297D+04 1.952969551086D+00-3.725290298462D-09 5.000000000000D+00
   -2.156608300781D+04-1.259048461914D+00 0.000000000000D+00 0.000000000000D+00
 6 23  7  5  9 45  0.0-1.179790124297D-04-1.818989403546D-12 3.420000000000D+04
   -1.349487548828D+04-2.343521118164D+00 1.862645149231D-09 0.000000000000D+00
    2.404006347656D+03-1.786468505859D+00 9.313225746155D-10-4.000000000000D+00
    2.149867675781D+04-1.272269248962D+00-1.862645149231D-09 0.000000000000D+00
16 23  7  5  9 45  0.0 1.634471118450D-05 9.094947017729D-13 3.420000000000D+04
   -2.039584521484D+04 2.009257316589D+00 1.862645149231D-09 0.000000000000D+00
   -1.058447265625D+01-6.210737228394D-01-9.313225746155D-10-1.000000000000D+00
    1.535793505859D+04 2.666885375977D+00-2.793967723846D-09 0.000000000000D+00
 9 23  7  5  9 45  0.0 1.294948160648D-04 2.728484105319D-12 3.420000000000D+04
   -2.336028027344D+04-1.888179779053D-01 1.862645149231D-09 0.000000000000D+00
    1.019542187500D+04 1.929073333740D-01-1.862645149231D-09-2.000000000000D+00
   -1.783480468750D+03 3.524864196777D+00-0.000000000000D+00 0.000000000000D+00
10 23  7  5  9 45  0.0-9.473692625761D-05-0.000000000000D+00 3.594000000000D+04
   -1.434506152344D+04-2.009510040283D+00 9.313225746155D-10 0.000000000000D+00
    1.371321484375D+04 8.783111572266D-01-1.862645149231D-09-7.000000000000D+00
   -1.598353906250D+04 2.563905715942D+00 9.313225746155D-10 0.000000000000D+00
20 23  7  5  9 45  0.0-9.600166231394D-05-0.000000000000D+00 3.420000000000D+04
   -1.152452539063D+04 7.242546081543D-01 0.000000000000D+00 0.000000000000D+00
    1.174958789063D+04-2.577887535095D+00-2.793967723846D-09 2.000000000000D+00
   -1.950161474609D+04-1.977594375610D+00 1.862645149231D-09 0.000000000000D+00
19 23  7  5  9 45  0.0-2.387128770351D-04-9.094947017729D-13 3.420000000000D+04
   -7.676023925781D+03 5.712347030640D-01-2.793967723846D-09 0.000000000000D+00
   -1.047068115234D+04-2.957483291626D+00-4.656612873077D-09 3.000000000000D+00
   -2.196527050781D+04 1.209856033325D+00-0.000000000000D+00 0.000000000000D+00
